      2.10          N: GNSS NAV DATA                        RINEX VERSION / TYPE
fic2rin                                 01/12/2022 00:17:38 PGM / RUN BY / DATE
                                                            END OF HEADER
29 22  1 11 18  0  0.0-4.660161212087e-04-4.774847184308e-12 0.000000000000e+00
    6.500000000000e+01-1.134375000000e+01 4.136243719725e-09-1.050911338927e+00
   -6.556510925293e-07 1.758190570399e-03 3.876164555550e-06 5.153765815735e+03
    2.376000000000e+05-4.284083843231e-08-2.270091280882e+00 5.029141902924e-08
    9.821943638577e-01 3.162187500000e+02 2.298083333264e+00-8.088194048605e-09
   -1.546492989069e-10 1.000000000000e+00 2.192000000000e+03 0.000000000000e+00
    2.400000000000e+00 0.000000000000e+00-1.024454832077e-08 6.500000000000e+01
    2.304000000000e+05 4.000000000000e+00
15 22  1 11 18  0  0.0-9.229546412826e-05 2.842170943040e-12 0.000000000000e+00
    8.300000000000e+01-1.562500000000e+01 5.449869866098e-09-2.093481126281e+00
   -9.424984455109e-07 1.391622482333e-02 6.092712283134e-06 5.153719207764e+03
    2.376000000000e+05 1.806765794754e-07 6.734968326350e-01-2.235174179077e-08
    9.298206458250e-01 2.379687500000e+02 1.069993354158e+00-8.275701859057e-09
    1.960795960737e-10 1.000000000000e+00 2.192000000000e+03 0.000000000000e+00
    2.400000000000e+00 0.000000000000e+00-1.071020960808e-08 8.300000000000e+01
    2.304000000000e+05 4.000000000000e+00
13 22  1 11 18  0  0.0 2.437601797283e-04 6.025402399246e-12 0.000000000000e+00
    9.200000000000e+01-1.562500000000e+01 4.612334979408e-09-1.699405245564e+00
   -8.363276720047e-07 5.788070033304e-03 7.232651114464e-06 5.153670259476e+03
    2.376000000000e+05 1.043081283569e-07 9.309399449283e-01 9.313225746155e-09
    9.683164295346e-01 2.420000000000e+02 9.731885479979e-01-7.926044437279e-09
   -2.357241045694e-11 1.000000000000e+00 2.192000000000e+03 0.000000000000e+00
    2.400000000000e+00 0.000000000000e+00-1.117587089539e-08 9.200000000000e+01
    2.304000000000e+05 4.000000000000e+00
14 22  1 11 18  0  0.0-6.918935105205e-05-5.456968210638e-12 0.000000000000e+00
    1.610000000000e+02 7.837500000000e+01 4.726625454351e-09 1.610368886968e+00
    4.159286618233e-06 1.319575472735e-03 6.390735507011e-06 5.153649610519e+03
    2.376000000000e+05 6.519258022308e-08 2.932434713436e+00 2.980232238770e-08
    9.544767329643e-01 2.525312500000e+02 3.047020791458e+00-8.235343035093e-09
   -6.464554988949e-11 1.000000000000e+00 2.192000000000e+03 0.000000000000e+00
    2.400000000000e+00 0.000000000000e+00-7.916241884232e-09 6.730000000000e+02
    2.304000000000e+05 4.000000000000e+00
11 22  1 11 18  0  0.0-3.384659066796e-05-3.626610123320e-11 0.000000000000e+00
    8.700000000000e+01-6.246875000000e+01 4.233390623426e-09-1.188144131978e+00
   -3.146007657051e-06 3.093656850979e-04 8.059665560722e-06 5.153761449814e+03
    2.376000000000e+05-7.636845111847e-08-1.240331620539e+00-3.725290298462e-08
    9.615715696584e-01 2.254062500000e+02 2.820628991685e+00-7.949616847736e-09
    4.107313943255e-11 1.000000000000e+00 2.192000000000e+03 0.000000000000e+00
    2.400000000000e+00 6.300000000000e+01-8.847564458847e-09 5.990000000000e+02
    2.304000000000e+05 4.000000000000e+00
31 22  1 11 18  0  0.0-1.594671048224e-04-1.818989403546e-12 0.000000000000e+00
    8.600000000000e+01 1.431250000000e+01 4.679123475703e-09 1.790803833574e+00
    9.853392839432e-07 1.046197442338e-02 1.045875251293e-05 5.153676248550e+03
    2.376000000000e+05-1.545995473862e-07 1.868844114299e+00 1.564621925354e-07
    9.549234759615e-01 1.775937500000e+02 3.653981001147e-01-8.026762918323e-09
   -3.693010971588e-10 1.000000000000e+00 2.192000000000e+03 0.000000000000e+00
    2.400000000000e+00 0.000000000000e+00-1.303851604462e-08 8.600000000000e+01
    2.304000000000e+05 4.000000000000e+00
16 22  1 11 18  0  0.0-4.541683010757e-04-5.456968210638e-12 0.000000000000e+00
    5.500000000000e+01 7.637500000000e+01 4.416255383335e-09-2.802805976919e-01
    4.095956683159e-06 1.261523086578e-02 6.519258022308e-06 5.153586524963e+03
    2.376000000000e+05 3.725290298462e-09 2.981795428800e+00 1.490116119385e-07
    9.710425188586e-01 2.569062500000e+02 6.962349156760e-01-8.233914404157e-09
   -3.535861568541e-11 1.000000000000e+00 2.192000000000e+03 0.000000000000e+00
    2.400000000000e+00 0.000000000000e+00-1.024454832077e-08 5.500000000000e+01
    2.304000000000e+05 4.000000000000e+00
32 22  1 11 18  0  0.0-4.894239827991e-05-6.025402399246e-12 0.000000000000e+00
    4.600000000000e+01-1.712500000000e+01 4.971278502275e-09-4.672258413517e-01
   -8.102506399155e-07 5.407344317064e-03 6.647780537605e-06 5.153754608154e+03
    2.376000000000e+05 1.117587089539e-08 7.896844285205e-01 8.195638656616e-08
    9.577855537613e-01 2.506875000000e+02-2.376392349114e+00-8.230342826815e-09
    5.714523747137e-12 1.000000000000e+00 2.192000000000e+03 0.000000000000e+00
    2.400000000000e+00 0.000000000000e+00 4.656612873077e-10 4.600000000000e+01
    2.304000000000e+05 4.000000000000e+00
30 22  1 11 18  0  0.0-5.060215480626e-04-2.614797267597e-12 0.000000000000e+00
    5.100000000000e+01 1.965625000000e+01 5.152714631247e-09 2.254224031056e+00
    1.061707735062e-06 5.411225836724e-03 9.158626198769e-06 5.153596546173e+03
    2.376000000000e+05-1.396983861923e-07 1.864562311076e+00 7.450580596924e-09
    9.358500217270e-01 1.930000000000e+02-2.753557678033e+00-8.214270728776e-09
   -2.010798043524e-10 1.000000000000e+00 2.192000000000e+03 0.000000000000e+00
    2.400000000000e+00 0.000000000000e+00 3.725290298462e-09 5.100000000000e+01
    2.304000000000e+05 4.000000000000e+00
21 22  1 11 18  0  0.0 1.558959484100e-04 7.958078640513e-13 0.000000000000e+00
    2.900000000000e+01-6.109375000000e+01 4.440184951526e-09-1.018233697452e+00
   -3.218650817871e-06 2.449126343708e-02 7.839873433113e-06 5.153596521378e+03
    2.376000000000e+05-3.837049007416e-07-1.374910166710e+00-1.303851604462e-08
    9.590290458321e-01 2.356875000000e+02-1.028345948976e+00-8.396421173216e-09
    2.242950570751e-10 1.000000000000e+00 2.192000000000e+03 0.000000000000e+00
    2.400000000000e+00 0.000000000000e+00-1.024454832077e-08 2.900000000000e+01
    2.304000000000e+05 4.000000000000e+00
19 22  1 11 18  0  0.0 1.042461954057e-04 5.002220859751e-12 0.000000000000e+00
    7.900000000000e+01-1.637500000000e+01 4.216961367653e-09 1.222150000665e+00
   -1.166015863419e-06 8.922281907871e-03 4.190951585770e-06 5.153676948547e+03
    2.376000000000e+05 1.080334186554e-07-2.238106917748e+00-1.974403858185e-07
    9.789117775705e-01 3.090000000000e+02 1.994895597718e+00-8.117123825074e-09
   -1.928651764659e-10 1.000000000000e+00 2.192000000000e+03 0.000000000000e+00
    2.400000000000e+00 0.000000000000e+00-1.583248376846e-08 7.900000000000e+01
    2.304000000000e+05 4.000000000000e+00
27 22  1 11 18  0  0.0 6.250245496631e-05 2.250999386888e-11 0.000000000000e+00
    7.800000000000e+01-9.375000000000e-01 4.304107854797e-09-1.153417362131e+00
   -5.215406417847e-08 9.995854343288e-03 3.494322299957e-06 5.153646999359e+03
    2.376000000000e+05 3.036111593246e-07-2.345268894252e+00 2.607703208923e-08
    9.738580817152e-01 3.187500000000e+02 6.291256071154e-01-8.154625387165e-09
   -1.653640309328e-10 1.000000000000e+00 2.192000000000e+03 0.000000000000e+00
    2.400000000000e+00 0.000000000000e+00 1.862645149231e-09 7.800000000000e+01
    2.304000000000e+05 4.000000000000e+00
24 22  1 11 18  0  0.0 2.771276049316e-04 1.136868377216e-13 0.000000000000e+00
    8.600000000000e+01 2.218750000000e+01 5.063425197698e-09-3.073717097798e+00
    9.480863809586e-07 1.227013999596e-02 9.719282388687e-06 5.153702798843e+03
    2.376000000000e+05-1.117587089539e-08 1.768708847857e+00-2.570450305939e-07
    9.341153958728e-01 1.757812500000e+02 8.003583879223e-01-8.043549331830e-09
   -2.782258749387e-10 1.000000000000e+00 2.192000000000e+03 0.000000000000e+00
    3.400000000000e+00 0.000000000000e+00 2.328306436539e-09 8.600000000000e+01
    2.304000000000e+05 4.000000000000e+00
25 22  1 11 18  0  0.0 2.694148570299e-04 5.570655048359e-12 0.000000000000e+00
    6.400000000000e+01 9.021875000000e+01 4.644479175486e-09 1.347770062227e+00
    4.632398486137e-06 1.033955626190e-02 7.286667823792e-06 5.153730859756e+03
    2.376000000000e+05-1.918524503708e-07 2.886898873463e+00 3.725290298462e-08
    9.584633866129e-01 2.391250000000e+02 9.712963731812e-01-8.279630594134e-09
   -4.250177036933e-11 1.000000000000e+00 2.192000000000e+03 0.000000000000e+00
    2.400000000000e+00 0.000000000000e+00 5.587935447693e-09 6.400000000000e+01
    2.304000000000e+05 4.000000000000e+00
26 22  1 11 18  0  0.0 1.734639517963e-04 3.410605131648e-12 0.000000000000e+00
    6.200000000000e+01 8.640625000000e+01 5.058067831685e-09 7.001564840994e-01
    4.690140485764e-06 6.751551409252e-03 6.813555955887e-06 5.153686256409e+03
    2.376000000000e+05 2.235174179077e-08 2.840579393625e+00 5.774199962616e-08
    9.392936445734e-01 2.319062500000e+02 3.465095192266e-01-8.418564952736e-09
   -8.893227581482e-11 1.000000000000e+00 2.192000000000e+03 0.000000000000e+00
    2.400000000000e+00 0.000000000000e+00 6.984919309616e-09 6.200000000000e+01
    2.304000000000e+05 4.000000000000e+00
17 22  1 11 18  0  0.0 5.600536242127e-04 5.229594535194e-12 0.000000000000e+00
    5.000000000000e+01-5.156250000000e+00 4.248748405997e-09-1.173871408730e+00
   -9.499490261078e-08 1.373572798911e-02 4.423782229424e-06 5.153737129211e+03
    2.376000000000e+05-2.067536115646e-07-2.283028068803e+00 1.937150955200e-07
    9.802095702345e-01 3.087187500000e+02-1.510264568558e+00-8.254272395006e-09
   -1.382200431339e-10 1.000000000000e+00 2.192000000000e+03 0.000000000000e+00
    2.400000000000e+00 0.000000000000e+00-1.117587089539e-08 5.000000000000e+01
    2.304000000000e+05 4.000000000000e+00
